{
  "type": "FeatureCollection",
  "features": [
    {
      "type": "Feature",
      "id": 1001995,
      "geometry": {
        "type": "Polygon",
        "coordinates": [
          [
            [
              104.24628502600001,
              12.834973185000024
            ],
            [
              104.246126463,
              12.834679398999981
            ],
            [
              104.24540752000001,
              12.833347340999978
            ],
            [
              104.24535946399999,
              12.833258301
            ],
            [
              104.24403198200002,
              12.830034013999978
            ],
            [
              104.24380708500001,
              12.829487759000017
            ],
            [
              104.24409546099997,
              12.828093826999975
            ],
            [
              104.24409668800001,
              12.827682615000015
            ],
            [
              104.24409756300003,
              12.827389670000002
            ],
            [
              104.24600781200002,
              12.82353864700002
            ],
            [
              104.25032681599998,
              12.804937548999987
            ],
            [
              104.25185169299999,
              12.786471957000003
            ],
            [
              104.25141699300002,
              12.784306232999995
            ],
            [
              104.25053867999998,
              12.783005046000028
            ],
            [
              104.24877810499999,
              12.781844890999992
            ],
            [
              104.24698944900001,
              12.779673043999992
            ],
            [
              104.246732576,
              12.779014486999984
            ],
            [
              104.24694610300003,
              12.778852336
            ],
            [
              104.24708521899998,
              12.77854077500001
            ],
            [
              104.24708366499999,
              12.778287588000012
            ],
            [
              104.247058976,
              12.778069372999994
            ],
            [
              104.24706919300002,
              12.777827521999995
            ],
            [
              104.24712621999998,
              12.777528159999974
            ],
            [
              104.24733439900001,
              12.77703256000001
            ],
            [
              104.24745046100003,
              12.776824918999978
            ],
            [
              104.24769420500002,
              12.77637463100001
            ],
            [
              104.24797496399998,
              12.776257880999992
            ],
            [
              104.24849132999998,
              12.776300042000003
            ],
            [
              104.24869078199998,
              12.776320955000017
            ],
            [
              104.24897294499999,
              12.776411049999979
            ],
            [
              104.24939508099999,
              12.776385124
            ],
            [
              104.24959338000002,
              12.776211623999984
            ],
            [
              104.249815135,
              12.775991848999979
            ],
            [
              104.24994274699998,
              12.775771807000012
            ],
            [
              104.25017583200002,
              12.775517025
            ],
            [
              104.25057346,
              12.775307920999978
            ],
            [
              104.25083086299998,
              12.775202405000016
            ],
            [
              104.251029975,
              12.775143065000009
            ],
            [
              104.251264617,
              12.775141469999994
            ],
            [
              104.25159311499999,
              12.775139011000022
            ],
            [
              104.25204903600002,
              12.774882597999976
            ],
            [
              104.252329197,
              12.774674289000018
            ],
            [
              104.25311246000001,
              12.774219872000003
            ],
            [
              104.253533473,
              12.773987094000006
            ],
            [
              104.25367347600002,
              12.773859766999976
            ],
            [
              104.25394056200003,
              12.773397106000004
            ],
            [
              104.254021018,
              12.773155452000026
            ],
            [
              104.25404325300002,
              12.772936239999979
            ],
            [
              104.25391040199997,
              12.772293864000005
            ],
            [
              104.25376868699999,
              12.772121659999982
            ],
            [
              104.25924846800001,
              12.762034597000024
            ],
            [
              104.259584303,
              12.761879557999976
            ],
            [
              104.25994730899998,
              12.76178563100001
            ],
            [
              104.26021571500002,
              12.76155354399998
            ],
            [
              104.260449032,
              12.761310055000024
            ],
            [
              104.260810913,
              12.761008150999999
            ],
            [
              104.26109064299999,
              12.760742185000026
            ],
            [
              104.261218525,
              12.76052213700001
            ],
            [
              104.261345554,
              12.760199230000012
            ],
            [
              104.26148360100001,
              12.759749762000013
            ],
            [
              104.261539191,
              12.759243549000018
            ],
            [
              104.261629185,
              12.758587103000025
            ],
            [
              104.26174362199998,
              12.758138699000028
            ],
            [
              104.26197502100001,
              12.757561769000006
            ],
            [
              104.262159924,
              12.757135036000022
            ],
            [
              104.26229778099997,
              12.756650528000023
            ],
            [
              104.26243645599999,
              12.75628131100001
            ],
            [
              104.26293495300001,
              12.755323087000022
            ],
            [
              104.263261355,
              12.754941959999996
            ],
            [
              104.263447638,
              12.75473337599999
            ],
            [
              104.26365614100001,
              12.754306708000001
            ],
            [
              104.26367547500001,
              12.753593550000005
            ],
            [
              104.26367412600001,
              12.753362967999976
            ],
            [
              104.26396467500001,
              12.752935397999977
            ],
            [
              104.26443200099999,
              12.752598741999975
            ],
            [
              104.26488723599999,
              12.752262051999992
            ],
            [
              104.265122453,
              12.751954136999984
            ],
            [
              104.268046008,
              12.749776266000026
            ],
            [
              104.26965054599998,
              12.747583417999977
            ],
            [
              104.27077486600001,
              12.74570345699999
            ],
            [
              104.27855342800001,
              12.732956232999982
            ],
            [
              104.278553649,
              12.732955870000012
            ],
            [
              104.28092629000002,
              12.73289676600001
            ],
            [
              104.282190222,
              12.732905845999994
            ],
            [
              104.285943293,
              12.733399758000019
            ],
            [
              104.28757980099999,
              12.73368560900002
            ],
            [
              104.291254084,
              12.73374407099999
            ],
            [
              104.29490700299999,
              12.733514199000012
            ],
            [
              104.297530505,
              12.733197905999987
            ],
            [
              104.30072838000001,
              12.732736165999995
            ],
            [
              104.30291701300001,
              12.732703505000018
            ],
            [
              104.30477819999999,
              12.732623624999974
            ],
            [
              104.30783400899998,
              12.732424783999988
            ],
            [
              104.309986482,
              12.732564906999983
            ],
            [
              104.311936834,
              12.733150954999985
            ],
            [
              104.31489386700002,
              12.733720381000012
            ],
            [
              104.31731159700001,
              12.734459060000006
            ],
            [
              104.31921490899998,
              12.735102579999989
            ],
            [
              104.32268024000001,
              12.736685978000025
            ],
            [
              104.32489923999998,
              12.737376609000023
            ],
            [
              104.32612383100002,
              12.738016088999984
            ],
            [
              104.32715058000002,
              12.73847082200001
            ],
            [
              104.33003601399997,
              12.739269352000008
            ],
            [
              104.33310711000001,
              12.740298902000006
            ],
            [
              104.33484812299997,
              12.740733927999997
            ],
            [
              104.33682316800002,
              12.741171791
            ],
            [
              104.33879877800001,
              12.74150565299999
            ],
            [
              104.34059635300002,
              12.74222788100002
            ],
            [
              104.34334276700002,
              12.742830380999976
            ],
            [
              104.34464822899997,
              12.743619179999996
            ],
            [
              104.34499604899997,
              12.74415015400001
            ],
            [
              104.34493395300001,
              12.744677853999974
            ],
            [
              104.34470890300003,
              12.74510116099998
            ],
            [
              104.343952634,
              12.746234114000004
            ],
            [
              104.34347901299998,
              12.747045629000013
            ],
            [
              104.34291173999998,
              12.747891949999996
            ],
            [
              104.34360956500001,
              12.748777581000013
            ],
            [
              104.34423467900001,
              12.749394017999975
            ],
            [
              104.34493453800002,
              12.749939428999994
            ],
            [
              104.34515526400003,
              12.750192033000019
            ],
            [
              104.34530153700001,
              12.750627563000023
            ],
            [
              104.345226438,
              12.751061414999981
            ],
            [
              104.34511449799999,
              12.751604814000018
            ],
            [
              104.34511375099999,
              12.75189530099999
            ],
            [
              104.34540500999998,
              12.753380112999992
            ],
            [
              104.34562536300001,
              12.753779656000006
            ],
            [
              104.34599320500001,
              12.754142263999995
            ],
            [
              104.34632363999998,
              12.754722927999978
            ],
            [
              104.34646956799997,
              12.755519024000023
            ],
            [
              104.346503342,
              12.756605331000003
            ],
            [
              104.34642666899998,
              12.757764834999989
            ],
            [
              104.34620315199999,
              12.758596185999977
            ],
            [
              104.34728509299998,
              12.760365526999976
            ],
            [
              104.347924718,
              12.76061351300001
            ],
            [
              104.348406753,
              12.760794420000025
            ],
            [
              104.348665503,
              12.760930695000013
            ],
            [
              104.34925202199997,
              12.761006740000028
            ],
            [
              104.34948642500001,
              12.760982449999972
            ],
            [
              104.34994359799998,
              12.760979053000028
            ],
            [
              104.35062442700001,
              12.761101670000016
            ],
            [
              104.35104747700001,
              12.761271125000007
            ],
            [
              104.35148316099998,
              12.761567204000016
            ],
            [
              104.351789639,
              12.761841489999995
            ],
            [
              104.35203844900002,
              12.762264834000007
            ],
            [
              104.35221763999999,
              12.762781824000001
            ],
            [
              104.35226802699998,
              12.763344840000002
            ],
            [
              104.35224762600001,
              12.763782218000017
            ],
            [
              104.35228726700001,
              12.764495538000006
            ],
            [
              104.35237215000001,
              12.764965953
            ],
            [
              104.35252633599998,
              12.765240995999989
            ],
            [
              104.35275082800001,
              12.765492473999984
            ],
            [
              104.35288263799998,
              12.765963004000014
            ],
            [
              104.35288577900002,
              12.766426437000007
            ],
            [
              104.35285737700002,
              12.766840059000003
            ],
            [
              104.35290719599999,
              12.767287781999983
            ],
            [
              104.35296772999999,
              12.767597634000026
            ],
            [
              104.35322835,
              12.768021007000016
            ],
            [
              104.35353552599997,
              12.768364240999972
            ],
            [
              104.35378440199997,
              12.768764979000025
            ],
            [
              104.35399772599999,
              12.769107983000026
            ],
            [
              104.354317138,
              12.769508891999976
            ],
            [
              104.354624693,
              12.769931247999978
            ],
            [
              104.35482707099999,
              12.770390647
            ],
            [
              104.35504372100002,
              12.771240035999995
            ],
            [
              104.35517723100003,
              12.771951323999986
            ],
            [
              104.35534672400001,
              12.772777991999988
            ],
            [
              104.35561248099998,
              12.774018586000011
            ],
            [
              104.35586469200001,
              12.77492457599999
            ],
            [
              104.35618589199998,
              12.775646494
            ],
            [
              104.35628104099999,
              12.775818533000006
            ],
            [
              104.35657659700001,
              12.776208079000014
            ],
            [
              104.356954959,
              12.776641907999988
            ],
            [
              104.35729747599999,
              12.77701913300001
            ],
            [
              104.35769873100003,
              12.777395372
            ],
            [
              104.35813491099998,
              12.777736655000012
            ],
            [
              104.35860624499998,
              12.77806671899998
            ],
            [
              104.35894819399999,
              12.778328650999981
            ],
            [
              104.35919559400003,
              12.77852253399999
            ],
            [
              104.359104032,
              12.778868185000022
            ],
            [
              104.358908068,
              12.779398952999998
            ],
            [
              104.358557787,
              12.779699893999975
            ],
            [
              104.35820845299997,
              12.780082218000018
            ],
            [
              104.35776499600001,
              12.780454140000018
            ],
            [
              104.35717046600001,
              12.781022366999991
            ],
            [
              104.356856397,
              12.781461289999982
            ],
            [
              104.35657624800001,
              12.781693449999977
            ],
            [
              104.35630623999998,
              12.781672446000016
            ],
            [
              104.35606030299999,
              12.781696712999974
            ],
            [
              104.35616757000003,
              12.781972768999992
            ],
            [
              104.356345729,
              12.782564353999987
            ],
            [
              104.35626823899997,
              12.782808310000007
            ],
            [
              104.356164708,
              12.783330259000024
            ],
            [
              104.35601949800002,
              12.784052169000006
            ],
            [
              104.35599776599997,
              12.784674913999993
            ],
            [
              104.35603600299999,
              12.785719409000023
            ],
            [
              104.35595181399998,
              12.78656128099999
            ],
            [
              104.35578710599998,
              12.787023173000023
            ],
            [
              104.355519528,
              12.787744783999983
            ],
            [
              104.35510917699997,
              12.788225291000003
            ],
            [
              104.355451856,
              12.789338348000001
            ],
            [
              104.355759804,
              12.789842086000021
            ],
            [
              104.356067871,
              12.790299482000023
            ],
            [
              104.35648172100002,
              12.790824953000026
            ],
            [
              104.35667194400003,
              12.791202939000016
            ],
            [
              104.356980384,
              12.79174171599999
            ],
            [
              104.35721725100001,
              12.792119814999978
            ],
            [
              104.357442633,
              12.792485452999983
            ],
            [
              104.35762162600003,
              12.792978702000028
            ],
            [
              104.357729791,
              12.793357617000026
            ],
            [
              104.35779320300003,
              12.79412750900002
            ],
            [
              104.35769232199999,
              12.794852918999993
            ],
            [
              104.35755519399999,
              12.795451646000004
            ],
            [
              104.357347866,
              12.796028725999975
            ],
            [
              104.35721036299998,
              12.79654720100001
            ],
            [
              104.357048647,
              12.796962758000006
            ],
            [
              104.35692045600001,
              12.797101472999998
            ],
            [
              104.35658143900002,
              12.797264540000015
            ],
            [
              104.35628866399998,
              12.797358770000017
            ],
            [
              104.35586646299998,
              12.7973973
            ],
            [
              104.35546827500002,
              12.797503704999997
            ],
            [
              104.35521065900002,
              12.797585587000015
            ],
            [
              104.355000862,
              12.797771574000024
            ],
            [
              104.354579694,
              12.797969475999992
            ],
            [
              104.35433321900001,
              12.797972264000009
            ],
            [
              104.35407583300002,
              12.798076750999996
            ],
            [
              104.35392488399998,
              12.798331829999995
            ],
            [
              104.35386854900003,
              12.798745382999982
            ],
            [
              104.35425373499999,
              12.798997254000028
            ],
            [
              104.355166505,
              12.799098956000023
            ],
            [
              104.355692218,
              12.799231356999996
            ],
            [
              104.35629038100001,
              12.799179693999974
            ],
            [
              104.35661734000001,
              12.799231356000007
            ],
            [
              104.35676017399999,
              12.799564013999998
            ],
            [
              104.35669175200002,
              12.799863377000008
            ],
            [
              104.35677604799997,
              12.800230931999977
            ],
            [
              104.35696561999998,
              12.800527534000025
            ],
            [
              104.35709770900002,
              12.801010496000004
            ],
            [
              104.357276738,
              12.801491311999996
            ],
            [
              104.35739705399999,
              12.801961812000002
            ],
            [
              104.35747166800002,
              12.802628873000003
            ],
            [
              104.357474964,
              12.803146560000016
            ],
            [
              104.35741995199999,
              12.803721750000022
            ],
            [
              104.35739966599999,
              12.804228077000005
            ],
            [
              104.357226427,
              12.804643606000013
            ],
            [
              104.35700542299998,
              12.804932424000015
            ],
            [
              104.35683112200002,
              12.805198749999988
            ],
            [
              104.35676203999998,
              12.80541672999999
            ],
            [
              104.35663487400001,
              12.805717080000022
            ],
            [
              104.35654263599997,
              12.805982475999997
            ],
            [
              104.35646226400002,
              12.806224165000003
            ],
            [
              104.35621698400001,
              12.806433802000015
            ],
            [
              104.35605471999997,
              12.806721632999995
            ],
            [
              104.355832421,
              12.806838641000013
            ],
            [
              104.35559976899998,
              12.806951102000028
            ],
            [
              104.355581428,
              12.807143208000014
            ],
            [
              104.35536703999998,
              12.807886423000014
            ],
            [
              104.35536811600002,
              12.808143004999977
            ],
            [
              104.35537003600001,
              12.808633561000022
            ],
            [
              104.35485312999998,
              12.81171010899999
            ],
            [
              104.35362137800001,
              12.817779069999972
            ],
            [
              104.35228686099998,
              12.824596025000005
            ],
            [
              104.35162851199999,
              12.82676232
            ],
            [
              104.35090735799997,
              12.829272069000012
            ],
            [
              104.35073120800001,
              12.832271450000007
            ],
            [
              104.35104703899998,
              12.833309844999974
            ],
            [
              104.35181986999999,
              12.834352756999976
            ],
            [
              104.35239525899999,
              12.835243720999983
            ],
            [
              104.35322068699998,
              12.836781830999996
            ],
            [
              104.353647895,
              12.838304266000023
            ],
            [
              104.35380556799998,
              12.839823776999992
            ],
            [
              104.35401941499998,
              12.841562703000022
            ],
            [
              104.354668893,
              12.843109418999973
            ],
            [
              104.35458940199999,
              12.843902694000008
            ],
            [
              104.35423418099998,
              12.845198274999973
            ],
            [
              104.35390821700003,
              12.846988997999972
            ],
            [
              104.35380482800002,
              12.84879269999999
            ],
            [
              104.35380831399999,
              12.850471202999984
            ],
            [
              104.35355107100003,
              12.852412422999976
            ],
            [
              104.35323134200002,
              12.853673049000008
            ],
            [
              104.35248334099998,
              12.854492932000028
            ],
            [
              104.35093470800001,
              12.855649922999987
            ],
            [
              104.348635505,
              12.856821996999997
            ],
            [
              104.34623081900003,
              12.858015263000027
            ],
            [
              104.34455541099999,
              12.858952621000014
            ],
            [
              104.34332815099998,
              12.86065290900001
            ],
            [
              104.34231418299998,
              12.862170616000014
            ],
            [
              104.34058213100002,
              12.862946172000022
            ],
            [
              104.34037596000002,
              12.863041728999974
            ],
            [
              104.34015603,
              12.862560800999972
            ],
            [
              104.34007165100002,
              12.86222828199999
            ],
            [
              104.33999996199998,
              12.861998652000011
            ],
            [
              104.33990440000002,
              12.861757657999988
            ],
            [
              104.339645555,
              12.861621371000012
            ],
            [
              104.33932786700001,
              12.861519975000022
            ],
            [
              104.33926778799997,
              12.861256464999997
            ],
            [
              104.33932483900003,
              12.861026029000016
            ],
            [
              104.339323622,
              12.860830485000008
            ],
            [
              104.339086861,
              12.860510014999988
            ],
            [
              104.338674615,
              12.86022527199998
            ],
            [
              104.338438613,
              12.860055133000003
            ],
            [
              104.33828504399997,
              12.859860335000008
            ],
            [
              104.33788366599998,
              12.859495368000012
            ],
            [
              104.33760239100002,
              12.859566997000002
            ],
            [
              104.337027535,
              12.85957119599999
            ],
            [
              104.336640171,
              12.859573608000005
            ],
            [
              104.33625247100002,
              12.85948446499998
            ],
            [
              104.33586451299999,
              12.859384018000014
            ],
            [
              104.33548862200001,
              12.859294902999977
            ],
            [
              104.33490094199999,
              12.859138563999977
            ],
            [
              104.33433639399999,
              12.858947242999989
            ],
            [
              104.33381007899999,
              12.858783145000018
            ],
            [
              104.33330141900001,
              12.858586312
            ],
            [
              104.33297224500001,
              12.858474707000028
            ],
            [
              104.332713377,
              12.85834971700001
            ],
            [
              104.33252481400001,
              12.858212471000002
            ],
            [
              104.33212629299999,
              12.858296230000008
            ],
            [
              104.33184482299998,
              12.858332813000004
            ],
            [
              104.33150462999998,
              12.858359072999974
            ],
            [
              104.33102422500002,
              12.858477660000005
            ],
            [
              104.33063675699998,
              12.858411115000024
            ],
            [
              104.33042536300002,
              12.858412837000003
            ],
            [
              104.33015595900002,
              12.858460751999985
            ],
            [
              104.33003769800001,
              12.858312381000019
            ],
            [
              104.32997672300002,
              12.857956182999999
            ],
            [
              104.32986925900002,
              12.857646208999995
            ],
            [
              104.32973697,
              12.857140630000004
            ],
            [
              104.32966480599998,
              12.856877086999987
            ],
            [
              104.32954618299999,
              12.856648464999978
            ],
            [
              104.32928607999997,
              12.856339230000003
            ],
            [
              104.32900281299999,
              12.856077407999976
            ],
            [
              104.32854296300002,
              12.855723581000007
            ],
            [
              104.32822498500002,
              12.855519313999991
            ],
            [
              104.32766005799999,
              12.855259031000003
            ],
            [
              104.32730688599997,
              12.855077279
            ],
            [
              104.32701240199998,
              12.854919413999994
            ],
            [
              104.32682368000002,
              12.85473582200001
            ],
            [
              104.32638654300001,
              12.854290495999976
            ],
            [
              104.32597569199999,
              12.854247620000024
            ],
            [
              104.32566966000002,
              12.854101027000013
            ],
            [
              104.325551012,
              12.853883705999976
            ],
            [
              104.32543070499997,
              12.853424497999981
            ],
            [
              104.32532943899997,
              12.853168790999973
            ],
            [
              104.292095077,
              12.867064034000009
            ],
            [
              104.29183441499998,
              12.867172966999988
            ],
            [
              104.28571506700001,
              12.868027820000009
            ],
            [
              104.28152210500002,
              12.867788049000012
            ],
            [
              104.26933111699998,
              12.856953413999975
            ],
            [
              104.266370999,
              12.854322906999982
            ],
            [
              104.26528204700003,
              12.853553531999978
            ],
            [
              104.262078197,
              12.851576729999977
            ],
            [
              104.25768459099999,
              12.847100877000003
            ],
            [
              104.25385782699999,
              12.843323947999977
            ],
            [
              104.25031693,
              12.839129581999998
            ],
            [
              104.248500723,
              12.83733743099998
            ],
            [
              104.24649039399998,
              12.835353687000008
            ],
            [
              104.24628502600001,
              12.834973185000024
            ]
          ]
        ]
      },
      "properties": {
        "objectid": 1001995,
        "site_id": 198314,
        "site_pid": "198314",
        "site_type": "PA",
        "name_eng": "Boeng Chhmar Core Area (Ramsar Site)",
        "name": "តំបន់ប្រើប្រាស់ច្រើនយ៉ាង តំបន់ស្នូលបឹងទន្លេឆ្មារ (តំបន់រ៉ាមសារ)",
        "desig": "តំបន់រ៉ាមសារ",
        "desig_eng": "Wetland of International Importance (Ramsar Site)",
        "desig_type": "International",
        "iucn_cat": "Ia",
        "int_crit": "(i);(ii);(v);(viii)",
        "realm": "Terrestrial",
        "rep_m_area": 0,
        "gis_m_area": 0,
        "rep_area": 145.6,
        "gis_area": 145.69247167999998,
        "no_take": "Not Applicable",
        "no_tk_area": 0,
        "status": "Designated",
        "status_yr": 1999,
        "gov_type": "Federal or national ministry or agency",
        "verif": "State Verified",
        "inlnd_wtrs": "Not Reported",
        "own_type": "State",
        "mang_auth": "Ministry of Environment",
        "mang_plan": "Management plan is implented and available",
        "cons_obj": "Not Applicable",
        "supp_info": "Not Applicable",
        "metadataid": 1976,
        "prnt_iso3": "KHM",
        "iso3": "KHM",
        "govsubtype": "Not Applicable",
        "ownsubtype": "Not Applicable",
        "oecm_asmt": "Not Applicable",
        "st_area(shape)": 0.012129864526101729,
        "st_length(shape)": 0.44591713629266
      }
    }
  ]
}