{
  "type": "FeatureCollection",
  "features": [
    {
      "type": "Feature",
      "id": 1134415,
      "geometry": {
        "type": "Polygon",
        "coordinates": [
          [
            [
              103.70514992800003,
              13.132865949000006
            ],
            [
              103.70514978,
              13.13286674699998
            ],
            [
              103.704941582,
              13.133375365000006
            ],
            [
              103.70482210199998,
              13.133731867999984
            ],
            [
              103.70473785299998,
              13.134076117999996
            ],
            [
              103.70457127499998,
              13.134398481999995
            ],
            [
              103.704298005,
              13.134892079999986
            ],
            [
              103.70410831100003,
              13.135224497000024
            ],
            [
              103.70405970899998,
              13.135477390000005
            ],
            [
              103.70396400200002,
              13.135752647000004
            ],
            [
              103.70374898799997,
              13.136350504999996
            ],
            [
              103.70361756699998,
              13.136729548999995
            ],
            [
              103.70358743499997,
              13.137857214000007
            ],
            [
              103.703299254,
              13.138938375999999
            ],
            [
              103.70321139100002,
              13.13991544999999
            ],
            [
              103.70312052899999,
              13.141353579999986
            ],
            [
              103.70295757000002,
              13.143125849
            ],
            [
              103.70279889199998,
              13.144137597999986
            ],
            [
              103.70272434999998,
              13.144827697999972
            ],
            [
              103.702765441,
              13.145840454999984
            ],
            [
              103.70272461799999,
              13.146806464000008
            ],
            [
              103.70249686199998,
              13.147577157
            ],
            [
              103.70252811400002,
              13.148267791000023
            ],
            [
              103.70237233300003,
              13.149446295000018
            ],
            [
              103.70233957300002,
              13.149694125999986
            ],
            [
              103.70232510199997,
              13.150306479999983
            ],
            [
              103.702316956,
              13.150651186000005
            ],
            [
              103.70224837699999,
              13.15152212800001
            ],
            [
              103.702230999,
              13.151978214999986
            ],
            [
              103.70223098500003,
              13.151978590999988
            ],
            [
              103.70219887000002,
              13.152493744000026
            ],
            [
              103.70224849599998,
              13.152705318000017
            ],
            [
              103.70239463500002,
              13.154299464000019
            ],
            [
              103.70238183999999,
              13.154594348999979
            ],
            [
              103.702381908,
              13.154594830999997
            ],
            [
              103.70246436399998,
              13.155183534999992
            ],
            [
              103.70251799699997,
              13.156058485000017
            ],
            [
              103.70251577099998,
              13.15642687799999
            ],
            [
              103.70247656100003,
              13.157139758000028
            ],
            [
              103.70241534000002,
              13.157542885999987
            ],
            [
              103.70234073,
              13.158244286000013
            ],
            [
              103.70214819400002,
              13.159002723000015
            ],
            [
              103.70206362099998,
              13.159405733000028
            ],
            [
              103.70200179800003,
              13.159922994999988
            ],
            [
              103.70193984999997,
              13.160463988000004
            ],
            [
              103.70180497400003,
              13.161440820999985
            ],
            [
              103.70167065200002,
              13.162092420000022
            ],
            [
              103.70166976799999,
              13.162096711000004
            ],
            [
              103.70166548200001,
              13.162636865000024
            ],
            [
              103.701661048,
              13.163205269999992
            ],
            [
              103.70167324699997,
              13.163844954000012
            ],
            [
              103.70168571900001,
              13.164651891000005
            ],
            [
              103.70169411699999,
              13.165192108999975
            ],
            [
              103.70173072199998,
              13.166124604999993
            ],
            [
              103.70198588599999,
              13.166723704999981
            ],
            [
              103.70223019600002,
              13.167139678000012
            ],
            [
              103.70257982999999,
              13.167647719000001
            ],
            [
              103.70284881700002,
              13.167867182999998
            ],
            [
              103.70302410099998,
              13.168087303999982
            ],
            [
              103.70344674,
              13.168948091999994
            ],
            [
              103.70344684000003,
              13.168948296999986
            ],
            [
              103.703489859,
              13.169320309
            ],
            [
              103.70373038100001,
              13.169909163
            ],
            [
              103.70386829,
              13.170438735000005
            ],
            [
              103.70386570099998,
              13.170876061000001
            ],
            [
              103.70377979900002,
              13.171531070000015
            ],
            [
              103.70363436600002,
              13.172267143999989
            ],
            [
              103.70355974400002,
              13.172969674
            ],
            [
              103.703436802,
              13.173923966000018
            ],
            [
              103.70339705499998,
              13.174683174999984
            ],
            [
              103.70292170599998,
              13.175544149000018
            ],
            [
              103.70274241099997,
              13.176084548000006
            ],
            [
              103.702549798,
              13.176854284000001
            ],
            [
              103.70237128500003,
              13.177191273000005
            ],
            [
              103.70209298999998,
              13.178024988999994
            ],
            [
              103.70209286,
              13.178026026999987
            ],
            [
              103.70197320400001,
              13.17898042500002
            ],
            [
              103.70162838200002,
              13.179635253000015
            ],
            [
              103.70120066800001,
              13.180426398000009
            ],
            [
              103.70094144299998,
              13.180813829999977
            ],
            [
              103.70090648799999,
              13.181045317999974
            ],
            [
              103.70050586999997,
              13.182655902000022
            ],
            [
              103.699996591,
              13.184203778999972
            ],
            [
              103.69992057299999,
              13.184621520999997
            ],
            [
              103.698848779,
              13.189328482000008
            ],
            [
              103.69878537199997,
              13.189607062999983
            ],
            [
              103.698704136,
              13.18996397799998
            ],
            [
              103.69858052199999,
              13.190507716000013
            ],
            [
              103.69858044699998,
              13.190508044000012
            ],
            [
              103.698587562,
              13.19107085600001
            ],
            [
              103.69850187200001,
              13.191680658999985
            ],
            [
              103.69829927500001,
              13.192151998999975
            ],
            [
              103.698164067,
              13.193128823999984
            ],
            [
              103.69797225399998,
              13.193795721000015
            ],
            [
              103.69782871799998,
              13.194221028000015
            ],
            [
              103.69761362499997,
              13.194818871999985
            ],
            [
              103.69742272500002,
              13.195312871999988
            ],
            [
              103.69730278700001,
              13.195691966000027
            ],
            [
              103.697147798,
              13.196047150000027
            ],
            [
              103.69686222899998,
              13.196667235999996
            ],
            [
              103.69664749700001,
              13.19719614600001
            ],
            [
              103.69652790499998,
              13.197563940000009
            ],
            [
              103.69647479100001,
              13.19790156099998
            ],
            [
              103.69643003700003,
              13.198184980000008
            ],
            [
              103.69631001800002,
              13.198633007000012
            ],
            [
              103.69621396600002,
              13.198965889000021
            ],
            [
              103.69614089599997,
              13.199368950999997
            ],
            [
              103.69593719,
              13.200047085999984
            ],
            [
              103.69569801699998,
              13.20072503900002
            ],
            [
              103.69537609999998,
              13.20112909400001
            ],
            [
              103.69530189699998,
              13.201364900999977
            ],
            [
              103.69511041099997,
              13.202021624999986
            ],
            [
              103.69478133199999,
              13.202687818000015
            ],
            [
              103.69457595400002,
              13.203190781999979
            ],
            [
              103.694272942,
              13.20378026200001
            ],
            [
              103.69400324999998,
              13.20433939999998
            ],
            [
              103.693656294,
              13.205004369999983
            ],
            [
              103.69337109399999,
              13.205550997999978
            ],
            [
              103.69306786099997,
              13.205855697999993
            ],
            [
              103.69278301999998,
              13.206280278999998
            ],
            [
              103.69249601500002,
              13.206786212999987
            ],
            [
              103.69237929000002,
              13.206992419000017
            ],
            [
              103.69186973500001,
              13.207704018000015
            ],
            [
              103.69173649200002,
              13.208196046000012
            ],
            [
              103.69157721800002,
              13.208756875000006
            ],
            [
              103.69148548999999,
              13.209196001999999
            ],
            [
              103.691485419,
              13.209196114000008
            ],
            [
              103.69125400500002,
              13.209563220000007
            ],
            [
              103.69114756099998,
              13.209733315999983
            ],
            [
              103.69088073400002,
              13.210130864999996
            ],
            [
              103.69074877700001,
              13.210326821000024
            ],
            [
              103.69051474399998,
              13.210630740999989
            ],
            [
              103.690308362,
              13.210886210000012
            ],
            [
              103.69011205999999,
              13.211089747000017
            ],
            [
              103.68988713300001,
              13.21130782900002
            ],
            [
              103.68953294699998,
              13.211594181999999
            ],
            [
              103.68916774000002,
              13.211730179000028
            ],
            [
              103.688908906,
              13.211763884999982
            ],
            [
              103.68859100700001,
              13.211842489999981
            ],
            [
              103.68832028899999,
              13.211887434999994
            ],
            [
              103.68787321000002,
              13.211965377000013
            ],
            [
              103.687307842,
              13.212055142999986
            ],
            [
              103.687030537,
              13.212199498000018
            ],
            [
              103.68672855300002,
              13.212375368999972
            ],
            [
              103.68630439399999,
              13.212534790000007
            ],
            [
              103.685997719,
              13.212671082999975
            ],
            [
              103.68578557500001,
              13.21276265900002
            ],
            [
              103.685573498,
              13.212841803999993
            ],
            [
              103.68510202800002,
              13.213058613999976
            ],
            [
              103.684571431,
              13.213331621999998
            ],
            [
              103.68413361199998,
              13.21356442299998
            ],
            [
              103.68395548000001,
              13.213658431999988
            ],
            [
              103.68356894499999,
              13.21384516400002
            ],
            [
              103.68319166200001,
              13.214027423000005
            ],
            [
              103.68292014100001,
              13.214221526000017
            ],
            [
              103.68260192899999,
              13.21435775499998
            ],
            [
              103.682227651,
              13.21435582700002
            ],
            [
              103.68184914800003,
              13.214388908999979
            ],
            [
              103.68160514300001,
              13.21439895200001
            ],
            [
              103.68126574299998,
              13.214399463000007
            ],
            [
              103.68072237400003,
              13.214365020000002
            ],
            [
              103.68041714200001,
              13.214392826999983
            ],
            [
              103.67975983000002,
              13.214205235000009
            ],
            [
              103.679159546,
              13.21392301200001
            ],
            [
              103.678973208,
              13.213719767999976
            ],
            [
              103.67872982799997,
              13.213452947000007
            ],
            [
              103.678530583,
              13.21312985100002
            ],
            [
              103.67843695200003,
              13.212792609000019
            ],
            [
              103.67800287199998,
              13.212651369000014
            ],
            [
              103.677814082,
              13.212743058000001
            ],
            [
              103.67751885400003,
              13.212948332999986
            ],
            [
              103.677294453,
              13.213120073000027
            ],
            [
              103.67709406799997,
              13.213223002000007
            ],
            [
              103.67677560499999,
              13.213405555000008
            ],
            [
              103.67641026799998,
              13.213564134000023
            ],
            [
              103.67617416600001,
              13.21371320999998
            ],
            [
              103.67599682500003,
              13.213873890999992
            ],
            [
              103.67511002499998,
              13.214801598999998
            ],
            [
              103.67498068399999,
              13.214937666000026
            ],
            [
              103.67473130000002,
              13.215196288000016
            ],
            [
              103.674454825,
              13.215505622000023
            ],
            [
              103.67409726,
              13.215986304000012
            ],
            [
              103.67381662399998,
              13.21631821699998
            ],
            [
              103.673435138,
              13.216636044999973
            ],
            [
              103.673216335,
              13.216891433
            ],
            [
              103.672873283,
              13.217193639000016
            ],
            [
              103.67260080099999,
              13.217403546000014
            ],
            [
              103.67238536299999,
              13.217569676999972
            ],
            [
              103.671954841,
              13.21794262100002
            ],
            [
              103.67159955199998,
              13.218161136999981
            ],
            [
              103.67142321900002,
              13.21840092299999
            ],
            [
              103.67112885300003,
              13.218444595999983
            ],
            [
              103.67079909,
              13.218581879999988
            ],
            [
              103.67039827399998,
              13.218740264000019
            ],
            [
              103.67003248499998,
              13.218980193999982
            ],
            [
              103.66977307899998,
              13.219117842000003
            ],
            [
              103.66921899300002,
              13.219356791999985
            ],
            [
              103.66863182999998,
              13.219261071000005
            ],
            [
              103.66841743499998,
              13.219127737999997
            ],
            [
              103.668221716,
              13.219006933000003
            ],
            [
              103.66784122299998,
              13.218661413999996
            ],
            [
              103.66755480900002,
              13.21846216199998
            ],
            [
              103.66689519900001,
              13.218167170000015
            ],
            [
              103.66664113000002,
              13.217905932000008
            ],
            [
              103.666313059,
              13.21773132300001
            ],
            [
              103.666078992,
              13.217557204000002
            ],
            [
              103.66575067100001,
              13.217428924999979
            ],
            [
              103.66507831199999,
              13.217782514000021
            ],
            [
              103.66490070999998,
              13.217989516999978
            ],
            [
              103.664616034,
              13.218425362000005
            ],
            [
              103.66447298899999,
              13.218746681000027
            ],
            [
              103.66423631599997,
              13.21899857699998
            ],
            [
              103.66390469700002,
              13.21942287500002
            ],
            [
              103.66368009799999,
              13.219628501999978
            ],
            [
              103.663336969,
              13.219995105999999
            ],
            [
              103.66307731199998,
              13.220177948000014
            ],
            [
              103.66286399199998,
              13.220429964000004
            ],
            [
              103.662427165,
              13.220739574999982
            ],
            [
              103.66201367399998,
              13.221105808999994
            ],
            [
              103.66178932399998,
              13.221265102000018
            ],
            [
              103.66128229100002,
              13.221492979000004
            ],
            [
              103.66090498199998,
              13.221675201999972
            ],
            [
              103.66063393600001,
              13.221777746999976
            ],
            [
              103.66011461400001,
              13.222143424000024
            ],
            [
              103.65949712999998,
              13.22316401400002
            ],
            [
              103.65918885399998,
              13.223588428000028
            ],
            [
              103.65873894100002,
              13.22412736199999
            ],
            [
              103.65835957600001,
              13.22463163499998
            ],
            [
              103.65795672299998,
              13.225159514999973
            ],
            [
              103.65738865200001,
              13.225789360000022
            ],
            [
              103.657175569,
              13.225996169999974
            ],
            [
              103.65676357799998,
              13.226085539999985
            ],
            [
              103.65628067699998,
              13.226221998000028
            ],
            [
              103.65566922900001,
              13.22624138399999
            ],
            [
              103.65502240799998,
              13.22629561399998
            ],
            [
              103.654704477,
              13.226375303999987
            ],
            [
              103.65443330099998,
              13.226500441999974
            ],
            [
              103.65391373400001,
              13.226854801999991
            ],
            [
              103.65333537999999,
              13.227254053000024
            ],
            [
              103.65265131299998,
              13.227631275000022
            ],
            [
              103.652296148,
              13.228031699999974
            ],
            [
              103.65182275799998,
              13.228535464999993
            ],
            [
              103.651183312,
              13.229292612999984
            ],
            [
              103.65087520700001,
              13.229681982999978
            ],
            [
              103.65061591099999,
              13.229795878999994
            ],
            [
              103.65044998600001,
              13.230025533000003
            ],
            [
              103.65041179399998,
              13.230520291999994
            ],
            [
              103.65015113099997,
              13.23082967900001
            ],
            [
              103.64993877400002,
              13.230955122000012
            ],
            [
              103.64946699400002,
              13.231217060000006
            ],
            [
              103.64662787100002,
              13.234314185000017
            ],
            [
              103.64630840500001,
              13.233938447000014
            ],
            [
              103.645921504,
              13.23376350000001
            ],
            [
              103.64553469600003,
              13.233519618999992
            ],
            [
              103.64501253899999,
              13.233294231999992
            ],
            [
              103.64425723300002,
              13.232833685999992
            ],
            [
              103.64426916899998,
              13.233178413000019
            ],
            [
              103.64442220699999,
              13.233350991999998
            ],
            [
              103.64453977699998,
              13.233523382999977
            ],
            [
              103.64466918,
              13.233902634999993
            ],
            [
              103.64448095,
              13.234201098000028
            ],
            [
              103.644269211,
              13.234109570999976
            ],
            [
              103.64411626600003,
              13.233972024000025
            ],
            [
              103.64401045699998,
              13.233810995999988
            ],
            [
              103.64392800500002,
              13.233546127000011
            ],
            [
              103.64389268299999,
              13.233362872999976
            ],
            [
              103.64388081800001,
              13.233109678999995
            ],
            [
              103.643880808,
              13.232902880999973
            ],
            [
              103.64382200199998,
              13.232638138000027
            ],
            [
              103.64368088200001,
              13.232500653999978
            ],
            [
              103.643433706,
              13.232351305999998
            ],
            [
              103.64317480699998,
              13.232235795999998
            ],
            [
              103.64291593500002,
              13.232167748999984
            ],
            [
              103.64269244500002,
              13.232167692000019
            ],
            [
              103.642304292,
              13.232167888999982
            ],
            [
              103.641880802,
              13.232248131999995
            ],
            [
              103.64165711800001,
              13.232283103999976
            ],
            [
              103.64122176699999,
              13.232318081000017
            ],
            [
              103.640845437,
              13.232318339000017
            ],
            [
              103.64033949899999,
              13.23234163799998
            ],
            [
              103.64003353599998,
              13.232341140000017
            ],
            [
              103.63963356,
              13.232341270000006
            ],
            [
              103.63923348399999,
              13.232307499000001
            ],
            [
              103.63884513699998,
              13.232238757000005
            ],
            [
              103.63855099699998,
              13.232238320000022
            ],
            [
              103.63833923599998,
              13.232307253999977
            ],
            [
              103.63810408,
              13.232330862000026
            ],
            [
              103.63778632600003,
              13.232376629999976
            ],
            [
              103.63742159899999,
              13.232468477999987
            ],
            [
              103.63714781300001,
              13.23254160099998
            ],
            [
              103.63682161999998,
              13.232652864999977
            ],
            [
              103.63663327900002,
              13.232710622000013
            ],
            [
              103.63639783500003,
              13.232630261999986
            ],
            [
              103.636386104,
              13.232354470000018
            ],
            [
              103.63626847299997,
              13.23209054199998
            ],
            [
              103.63604485500002,
              13.231906281000022
            ],
            [
              103.63586862199998,
              13.231757304999974
            ],
            [
              103.63565660199998,
              13.231561806000002
            ],
            [
              103.63549212999999,
              13.23142419200002
            ],
            [
              103.63535069900001,
              13.231136407000008
            ],
            [
              103.63540971700002,
              13.230894893000027
            ],
            [
              103.63532737000003,
              13.230561091000027
            ],
            [
              103.63542137299999,
              13.230354794999982
            ],
            [
              103.635527362,
              13.230171164000012
            ],
            [
              103.63538609199998,
              13.230009944000017
            ],
            [
              103.63511560199998,
              13.230009628999994
            ],
            [
              103.63484498100001,
              13.229929081000023
            ],
            [
              103.63488015899998,
              13.229722471000002
            ],
            [
              103.63488022000001,
              13.229504372999997
            ],
            [
              103.634809631,
              13.229285898
            ],
            [
              103.63472715299997,
              13.22897582600001
            ],
            [
              103.63448011700001,
              13.228595942000027
            ],
            [
              103.634021222,
              13.228561849000016
            ],
            [
              103.633797673,
              13.228883845999974
            ],
            [
              103.63357418499999,
              13.229194542000016
            ],
            [
              103.63343292000002,
              13.229446915999972
            ],
            [
              103.633268386,
              13.22963136300001
            ],
            [
              103.63293893399998,
              13.229551628000024
            ],
            [
              103.63293897199998,
              13.229803627000024
            ],
            [
              103.632703563,
              13.229976394000005
            ],
            [
              103.63244476300002,
              13.229793072000007
            ],
            [
              103.632256456,
              13.229586396999991
            ],
            [
              103.63205652200003,
              13.229344627999978
            ],
            [
              103.63188003900001,
              13.229138015999979
            ],
            [
              103.631644601,
              13.228850855000019
            ],
            [
              103.63149163700001,
              13.228666970000006
            ],
            [
              103.63130340100003,
              13.228447863999975
            ],
            [
              103.63116229500002,
              13.228206408999995
            ],
            [
              103.63108004700001,
              13.227907637999976
            ],
            [
              103.631079855,
              13.227631906999989
            ],
            [
              103.631079952,
              13.22735617799998
            ],
            [
              103.631080112,
              13.227069148999988
            ],
            [
              103.63115053899998,
              13.226747465000017
            ],
            [
              103.631209367,
              13.226437019000002
            ],
            [
              103.63119751599999,
              13.225977028999978
            ],
            [
              103.631197612,
              13.22570129899998
            ],
            [
              103.63104475099999,
              13.225344517999986
            ],
            [
              103.63086830399999,
              13.225080273999993
            ],
            [
              103.63072697000001,
              13.224931480999999
            ],
            [
              103.63049176499999,
              13.224758455000028
            ],
            [
              103.63024463900001,
              13.224551464000001
            ],
            [
              103.62957419399999,
              13.224034831999973
            ],
            [
              103.629209355,
              13.22373567599999
            ],
            [
              103.62899743999998,
              13.223575203999985
            ],
            [
              103.62866822799998,
              13.22340280200001
            ],
            [
              103.62842112999999,
              13.223346105000019
            ],
            [
              103.62810331899999,
              13.223507125000026
            ],
            [
              103.627856227,
              13.223449297000002
            ],
            [
              103.62765636,
              13.223300188999985
            ],
            [
              103.62745627499999,
              13.22313864900002
            ],
            [
              103.62727995699998,
              13.223058600000002
            ],
            [
              103.62698588799998,
              13.223150814000007
            ],
            [
              103.62676209099999,
              13.223104410000019
            ],
            [
              103.62662099099998,
              13.222862953999993
            ],
            [
              103.626385814,
              13.222737386000006
            ],
            [
              103.62618565600002,
              13.222795072999986
            ],
            [
              103.625879903,
              13.222656695000012
            ],
            [
              103.625597535,
              13.222564773999977
            ],
            [
              103.62533859199999,
              13.222254882000016
            ],
            [
              103.62518586300001,
              13.222082295000007
            ],
            [
              103.62502098700003,
              13.22186444099998
            ],
            [
              103.624797548,
              13.221599939999976
            ],
            [
              103.62464465800002,
              13.221404751000023
            ],
            [
              103.62444444900001,
              13.221162976000016
            ],
            [
              103.62429168599999,
              13.220945186999984
            ],
            [
              103.62404456899998,
              13.22073819000002
            ],
            [
              103.62372689300003,
              13.220772641999986
            ],
            [
              103.62350345599998,
              13.220405307000021
            ],
            [
              103.62350334199999,
              13.220117146999996
            ],
            [
              103.623232744,
              13.219829790999995
            ],
            [
              103.62293865599997,
              13.219668872
            ],
            [
              103.62275051300003,
              13.219692719000022
            ],
            [
              103.62246803099998,
              13.219416598999999
            ],
            [
              103.62232702900002,
              13.219210171999976
            ],
            [
              103.62202108600002,
              13.219106821000025
            ],
            [
              103.62163270299999,
              13.219049356000028
            ],
            [
              103.621327076,
              13.219095170000003
            ],
            [
              103.62098569300002,
              13.219140790999973
            ],
            [
              103.62038563300001,
              13.219498036000005
            ],
            [
              103.61977394600001,
              13.219820185000003
            ],
            [
              103.619527006,
              13.219992878000028
            ],
            [
              103.61917382600001,
              13.220187597000006
            ],
            [
              103.61896222600001,
              13.220280247000005
            ],
            [
              103.61855044100002,
              13.220487079000009
            ],
            [
              103.618315005,
              13.220613501000003
            ],
            [
              103.61799738399998,
              13.220740609000018
            ],
            [
              103.61773871899999,
              13.220844304000025
            ],
            [
              103.61725622400002,
              13.220959219000008
            ],
            [
              103.61687977899999,
              13.221086006999997
            ],
            [
              103.616620834,
              13.22108573600002
            ],
            [
              103.61616215700002,
              13.221016582000004
            ],
            [
              103.61564430200002,
              13.220856704000028
            ],
            [
              103.61531506400001,
              13.220844751000016
            ],
            [
              103.61503272700003,
              13.220901982999976
            ],
            [
              103.614797458,
              13.220845337000014
            ],
            [
              103.61485620399998,
              13.22060382799998
            ],
            [
              103.61505627100001,
              13.22051111899998
            ],
            [
              103.61547983499997,
              13.220465951999984
            ],
            [
              103.615844445,
              13.220545898000012
            ],
            [
              103.61616220899998,
              13.220649320999996
            ],
            [
              103.616409267,
              13.220660828000007
            ],
            [
              103.616773851,
              13.220694442000024
            ],
            [
              103.61707986900001,
              13.220579702999999
            ],
            [
              103.61711493199999,
              13.220395697000015
            ],
            [
              103.61702087200001,
              13.220200823000027
            ],
            [
              103.616820888,
              13.220074307000004
            ],
            [
              103.61663272599998,
              13.219947854999987
            ],
            [
              103.61651509199999,
              13.219740423000019
            ],
            [
              103.61635052499997,
              13.219418602000019
            ],
            [
              103.616115202,
              13.219269295000004
            ],
            [
              103.61585629000001,
              13.21921252200002
            ],
            [
              103.61547991999998,
              13.219224044999976
            ],
            [
              103.61513860100001,
              13.219258357000001
            ],
            [
              103.614797372,
              13.219327700999997
            ],
            [
              103.61459744000001,
              13.219396679999988
            ],
            [
              103.61442086400001,
              13.219465786
            ],
            [
              103.61406803699998,
              13.219546365999975
            ],
            [
              103.613738668,
              13.219558140999993
            ],
            [
              103.61352682299997,
              13.219592024000008
            ],
            [
              103.613256175,
              13.219673048999994
            ],
            [
              103.61290318699997,
              13.219731025999977
            ],
            [
              103.61259736,
              13.219811859000004
            ],
            [
              103.61236206199999,
              13.219811713000013
            ],
            [
              103.612103343,
              13.219822738999994
            ],
            [
              103.61175048299998,
              13.219858115000022
            ],
            [
              103.61112677900002,
              13.219754154999976
            ],
            [
              103.610679769,
              13.219662454000002
            ],
            [
              103.61032683100001,
              13.219558833000008
            ],
            [
              103.60992692399998,
              13.219398454999975
            ],
            [
              103.60952680000003,
              13.219225644999995
            ],
            [
              103.60910522900002,
              13.21897022600001
            ],
            [
              103.60886702200003,
              13.218720323000014
            ],
            [
              103.60845710199999,
              13.218292071000008
            ],
            [
              103.60777960600001,
              13.217708678000008
            ],
            [
              103.60675382,
              13.216864609000027
            ],
            [
              103.60642323299999,
              13.216532839000024
            ],
            [
              103.59435785,
              13.204420740999979
            ],
            [
              103.586610646,
              13.195125452000013
            ],
            [
              103.58601761800003,
              13.194413654000016
            ],
            [
              103.583629497,
              13.19154828500001
            ],
            [
              103.582366358,
              13.189498218999972
            ],
            [
              103.57405989,
              13.176018462999991
            ],
            [
              103.56894351900002,
              13.166520418999994
            ],
            [
              103.566590899,
              13.159163308000018
            ],
            [
              103.56445948700002,
              13.154781625999988
            ],
            [
              103.56384131200002,
              13.152622097999995
            ],
            [
              103.5635211,
              13.151126424999973
            ],
            [
              103.56361265200002,
              13.149809337000022
            ],
            [
              103.56327978600001,
              13.14835879399999
            ],
            [
              103.56285281700002,
              13.145346040999982
            ],
            [
              103.56234655899999,
              13.142089890000022
            ],
            [
              103.56198823800003,
              13.14075559600002
            ],
            [
              103.56145653499999,
              13.137614563999989
            ],
            [
              103.56100681700002,
              13.135295513000017
            ],
            [
              103.56085438100001,
              13.13291145400001
            ],
            [
              103.560862542,
              13.130123745999981
            ],
            [
              103.560750052,
              13.127463055000021
            ],
            [
              103.56071802299999,
              13.126478630999998
            ],
            [
              103.56062496099997,
              13.124094902000024
            ],
            [
              103.56031740100002,
              13.121026313000016
            ],
            [
              103.56106091800001,
              13.116687807000005
            ],
            [
              103.56130242299997,
              13.113371420000021
            ],
            [
              103.561143367,
              13.109148779999998
            ],
            [
              103.56147864799999,
              13.106654438000021
            ],
            [
              103.56181487100002,
              13.103351004999979
            ],
            [
              103.56185649499997,
              13.10144376300002
            ],
            [
              103.56215535299998,
              13.099758307999991
            ],
            [
              103.56277637099998,
              13.097187582000004
            ],
            [
              103.56350533400001,
              13.094537221999985
            ],
            [
              103.56408596,
              13.092266849999987
            ],
            [
              103.56531668600002,
              13.090107441999976
            ],
            [
              103.567597234,
              13.086760549000019
            ],
            [
              103.569021996,
              13.084326466999983
            ],
            [
              103.56992779199999,
              13.082475983999984
            ],
            [
              103.57107248300002,
              13.08052511599999
            ],
            [
              103.572309373,
              13.07872504400001
            ],
            [
              103.573141437,
              13.077810929999998
            ],
            [
              103.57442003599999,
              13.076370424999993
            ],
            [
              103.575609918,
              13.075321541999983
            ],
            [
              103.57776492599999,
              13.073163758000021
            ],
            [
              103.57866777700002,
              13.072261312000023
            ],
            [
              103.580574571,
              13.070816313000023
            ],
            [
              103.58107940100001,
              13.070372722999991
            ],
            [
              103.58304008599998,
              13.069276048999996
            ],
            [
              103.58509381699997,
              13.068283830999974
            ],
            [
              103.58614402699999,
              13.067811574000018
            ],
            [
              103.58873103500002,
              13.066839190999985
            ],
            [
              103.590185884,
              13.06625612099998
            ],
            [
              103.59184853199997,
              13.066023356000017
            ],
            [
              103.59298761999997,
              13.065933504999975
            ],
            [
              103.59372248099999,
              13.065930723999998
            ],
            [
              103.59542405500002,
              13.066254125
            ],
            [
              103.596839365,
              13.066699137
            ],
            [
              103.599047574,
              13.067225281999981
            ],
            [
              103.59931975299997,
              13.067251618
            ],
            [
              103.59992124299998,
              13.067444723999984
            ],
            [
              103.60047567800001,
              13.067601411999988
            ],
            [
              103.60108988500002,
              13.067736950999972
            ],
            [
              103.60191601000002,
              13.067956128999981
            ],
            [
              103.60338716400003,
              13.068621767000025
            ],
            [
              103.604541584,
              13.069087928999977
            ],
            [
              103.60661618799998,
              13.069807658999991
            ],
            [
              103.607088406,
              13.069929989000002
            ],
            [
              103.60873607799999,
              13.069904962999999
            ],
            [
              103.60964468200001,
              13.069395682999982
            ],
            [
              103.61086720200001,
              13.068509522
            ],
            [
              103.61199070800001,
              13.067909853999993
            ],
            [
              103.61308855099998,
              13.067415136000022
            ],
            [
              103.61491622,
              13.067253169000026
            ],
            [
              103.616169668,
              13.067431650000003
            ],
            [
              103.61810259100002,
              13.068138100999988
            ],
            [
              103.61910169200002,
              13.068659873000001
            ],
            [
              103.62148102600003,
              13.069626335999999
            ],
            [
              103.62323583,
              13.070343100999992
            ],
            [
              103.62465532200002,
              13.07129764199999
            ],
            [
              103.626647891,
              13.072745665000014
            ],
            [
              103.628957668,
              13.074370515999988
            ],
            [
              103.63022447399999,
              13.075219124
            ],
            [
              103.63185404000001,
              13.076396235000004
            ],
            [
              103.633732856,
              13.077530582000009
            ],
            [
              103.635024509,
              13.07832166899999
            ],
            [
              103.63729942999998,
              13.079333781000003
            ],
            [
              103.63988002999997,
              13.080893301000003
            ],
            [
              103.64081679999998,
              13.081343475999972
            ],
            [
              103.64107894799997,
              13.081469160999973
            ],
            [
              103.64315085999999,
              13.082829344999993
            ],
            [
              103.645354392,
              13.083946113000025
            ],
            [
              103.64838096400001,
              13.085290924999981
            ],
            [
              103.65107892999998,
              13.086492729999975
            ],
            [
              103.65513767800002,
              13.088308445999985
            ],
            [
              103.65805749200001,
              13.089696671000013
            ],
            [
              103.66174877499998,
              13.091692320999982
            ],
            [
              103.66521971499998,
              13.09335228499998
            ],
            [
              103.66670868,
              13.094093396000005
            ],
            [
              103.668960647,
              13.095141296000008
            ],
            [
              103.670356653,
              13.095754211999974
            ],
            [
              103.671844523,
              13.096598126999993
            ],
            [
              103.67382272100002,
              13.097862680999981
            ],
            [
              103.67616466200002,
              13.099291820000019
            ],
            [
              103.67922726,
              13.100600324000027
            ],
            [
              103.681467403,
              13.101671795000016
            ],
            [
              103.683472591,
              13.102648251999994
            ],
            [
              103.685386397,
              13.103358662000005
            ],
            [
              103.68769833800002,
              13.104326483000023
            ],
            [
              103.69052370899999,
              13.105771523999977
            ],
            [
              103.69308162300001,
              13.106890850000013
            ],
            [
              103.69472357000001,
              13.10767892299998
            ],
            [
              103.69652926399999,
              13.10857291100001
            ],
            [
              103.69791295700003,
              13.10925456199999
            ],
            [
              103.698931189,
              13.109933231000014
            ],
            [
              103.700211008,
              13.110418842000001
            ],
            [
              103.70145585799997,
              13.110868109000023
            ],
            [
              103.70214838999999,
              13.111163159
            ],
            [
              103.70357638399997,
              13.112087971999983
            ],
            [
              103.70431049000001,
              13.112866898999982
            ],
            [
              103.70473081300003,
              13.113239679000003
            ],
            [
              103.705147291,
              13.113576276000003
            ],
            [
              103.70552531200002,
              13.113881036999999
            ],
            [
              103.70617394200002,
              13.114912668999978
            ],
            [
              103.70660833300002,
              13.115606561999982
            ],
            [
              103.70662388199997,
              13.115631399999984
            ],
            [
              103.706589254,
              13.116079867999986
            ],
            [
              103.70643261700002,
              13.116378553000004
            ],
            [
              103.70636425200001,
              13.116608745999997
            ],
            [
              103.70633621399998,
              13.116680121999991
            ],
            [
              103.70619101699998,
              13.117049737000002
            ],
            [
              103.70596169700002,
              13.117522088999976
            ],
            [
              103.70596669600002,
              13.117570209000007
            ],
            [
              103.70602865900003,
              13.118166571000017
            ],
            [
              103.70584977700003,
              13.118678417000012
            ],
            [
              103.705840207,
              13.118705803000012
            ],
            [
              103.70582490499999,
              13.118985985999984
            ],
            [
              103.70578635099997,
              13.119247970999993
            ],
            [
              103.70575676200002,
              13.119448976000001
            ],
            [
              103.70572133399997,
              13.119829634999974
            ],
            [
              103.70562560500002,
              13.120165917999998
            ],
            [
              103.70553238600002,
              13.120468914000014
            ],
            [
              103.705531183,
              13.120472824999979
            ],
            [
              103.70550731100002,
              13.120903264999981
            ],
            [
              103.705458341,
              13.121282726000004
            ],
            [
              103.705397506,
              13.121615793999979
            ],
            [
              103.70539474600002,
              13.122088152999993
            ],
            [
              103.705438851,
              13.122583350000014
            ],
            [
              103.705329103,
              13.123284577999982
            ],
            [
              103.70524497899999,
              13.123606226999982
            ],
            [
              103.705160369,
              13.124020540999993
            ],
            [
              103.70505218699998,
              13.124422304999996
            ],
            [
              103.70499157400002,
              13.124767803999987
            ],
            [
              103.70480946999999,
              13.125744407000013
            ],
            [
              103.70477045799998,
              13.126423387999978
            ],
            [
              103.70465904100001,
              13.126782192999997
            ],
            [
              103.70469180100002,
              13.126966560000028
            ],
            [
              103.704716658,
              13.127228864000017
            ],
            [
              103.70478713900002,
              13.127586323999992
            ],
            [
              103.70483711499998,
              13.127840843000001
            ],
            [
              103.70495857399999,
              13.128426835000027
            ],
            [
              103.704991463,
              13.128806707000024
            ],
            [
              103.70503562599998,
              13.129290603000015
            ],
            [
              103.70516241399997,
              13.129739882000024
            ],
            [
              103.70529914399998,
              13.130162089999999
            ],
            [
              103.70538791400003,
              13.130385161999982
            ],
            [
              103.70548632399999,
              13.130638794999982
            ],
            [
              103.70554315300001,
              13.130961152999987
            ],
            [
              103.70554182699999,
              13.13121428400001
            ],
            [
              103.70545769400002,
              13.131537063999986
            ],
            [
              103.70532559499998,
              13.131936446999987
            ],
            [
              103.70524200400001,
              13.132375626999988
            ],
            [
              103.70518597199998,
              13.132671426000002
            ],
            [
              103.70514992800003,
              13.132865949000006
            ]
          ]
        ]
      },
      "properties": {
        "objectid": 1134415,
        "site_id": 555624178,
        "site_pid": "555624178",
        "site_type": "PA",
        "name_eng": "Prek Toal Core Area (Ramsar Site)",
        "name": "តំបន់ប្រើប្រាស់ច្រើនយ៉ាង តំបន់ស្នូលព្រែកទាល់ (តំបន់រ៉ាមសារ)",
        "desig": "តំបន់រ៉ាមសារ",
        "desig_eng": "Wetland of International Importance (Ramsar Site)",
        "desig_type": "International",
        "iucn_cat": "Ia",
        "int_crit": "(ii);(iv);(v);(vi)",
        "realm": "Terrestrial",
        "rep_m_area": 0,
        "gis_m_area": 0,
        "rep_area": 213.42,
        "gis_area": 213.48228181000002,
        "no_take": "Not Applicable",
        "no_tk_area": 0,
        "status": "Designated",
        "status_yr": 2015,
        "gov_type": "Federal or national ministry or agency",
        "verif": "State Verified",
        "inlnd_wtrs": "Not Reported",
        "own_type": "State",
        "mang_auth": "Ministry of Environment",
        "mang_plan": "https://rsis.ramsar.org/ris/2245",
        "cons_obj": "Not Applicable",
        "supp_info": "Not Applicable",
        "metadataid": 1976,
        "prnt_iso3": "KHM",
        "iso3": "KHM",
        "govsubtype": "Not Applicable",
        "ownsubtype": "Not Applicable",
        "oecm_asmt": "Not Applicable",
        "st_area(shape)": 0.017797977374571766,
        "st_length(shape)": 0.5243272924961826
      }
    }
  ]
}