{
  "type": "FeatureCollection",
  "features": [
    {
      "type": "Feature",
      "id": 1184844,
      "geometry": {
        "type": "Polygon",
        "coordinates": [
          [
            [
              104.48459490599998,
              12.564760928999988
            ],
            [
              104.48612002599998,
              12.563954527000021
            ],
            [
              104.48649825000001,
              12.563962982000021
            ],
            [
              104.489493703,
              12.564029921999975
            ],
            [
              104.49043524799998,
              12.563449584000011
            ],
            [
              104.49193351600002,
              12.56297428900001
            ],
            [
              104.4925963,
              12.562393413999985
            ],
            [
              104.49409549400002,
              12.561438840999983
            ],
            [
              104.49545455999998,
              12.560791451
            ],
            [
              104.49674482199998,
              12.559870379000017
            ],
            [
              104.49726868800002,
              12.559118549000004
            ],
            [
              104.497513604,
              12.558469057000025
            ],
            [
              104.49824591100003,
              12.557923338000023
            ],
            [
              104.498907342,
              12.558027435999975
            ],
            [
              104.49967266800002,
              12.558405271000026
            ],
            [
              104.500368449,
              12.558747933999996
            ],
            [
              104.501446875,
              12.559365980999985
            ],
            [
              104.50255929999997,
              12.560257631000013
            ],
            [
              104.50281939799999,
              12.560533919000022
            ],
            [
              104.50301117200001,
              12.560736607000024
            ],
            [
              104.503618598,
              12.561255431999996
            ],
            [
              104.504595209,
              12.562022485
            ],
            [
              104.50545069999998,
              12.563249364
            ],
            [
              104.50616471299998,
              12.564601448000019
            ],
            [
              104.50665304900002,
              12.56633178300001
            ],
            [
              104.50677536500001,
              12.567057692999981
            ],
            [
              104.50693306699998,
              12.567783668000004
            ],
            [
              104.50711448999999,
              12.568440735000024
            ],
            [
              104.50769034500001,
              12.56953936299999
            ],
            [
              104.50827628000002,
              12.57078608400002
            ],
            [
              104.50914244199998,
              12.572174612000026
            ],
            [
              104.51015720100003,
              12.573943206000024
            ],
            [
              104.511907802,
              12.575903036
            ],
            [
              104.51331109199998,
              12.577456429999984
            ],
            [
              104.51483044999998,
              12.579102714999976
            ],
            [
              104.515338784,
              12.579877925999995
            ],
            [
              104.51596542200002,
              12.58185039
            ],
            [
              104.51680402300002,
              12.583710199999985
            ],
            [
              104.51833310299997,
              12.585574642999973
            ],
            [
              104.52023414899998,
              12.587776587999997
            ],
            [
              104.52115780100002,
              12.589256739999996
            ],
            [
              104.521938293,
              12.589746446999982
            ],
            [
              104.52255925200001,
              12.58969442900002
            ],
            [
              104.523544404,
              12.589507416000004
            ],
            [
              104.52486079699997,
              12.588954752999996
            ],
            [
              104.52630210699999,
              12.588839751000023
            ],
            [
              104.52824583400002,
              12.58883301100002
            ],
            [
              104.53066535699998,
              12.589335748999986
            ],
            [
              104.53262942399999,
              12.589697507999972
            ],
            [
              104.53418533899998,
              12.589848296000014
            ],
            [
              104.535688865,
              12.590654588999996
            ],
            [
              104.53692875799999,
              12.592161237000028
            ],
            [
              104.53877678999999,
              12.593717533000017
            ],
            [
              104.54145947299997,
              12.594959881000023
            ],
            [
              104.54297595700001,
              12.595628252999973
            ],
            [
              104.54436745800001,
              12.597181471999988
            ],
            [
              104.546027106,
              12.598909212000024
            ],
            [
              104.54782541700001,
              12.600822556000026
            ],
            [
              104.54899877899999,
              12.603259319000017
            ],
            [
              104.549262935,
              12.605217535999998
            ],
            [
              104.54918751399998,
              12.60853047400002
            ],
            [
              104.548973246,
              12.610290071999998
            ],
            [
              104.54878699,
              12.61149584399999
            ],
            [
              104.548641197,
              12.61210485800001
            ],
            [
              104.549193731,
              12.613202232999981
            ],
            [
              104.54979171600002,
              12.614472626999998
            ],
            [
              104.55041372900001,
              12.615662805
            ],
            [
              104.55105758399998,
              12.61571475400001
            ],
            [
              104.55241272400002,
              12.616093434999982
            ],
            [
              104.55345629599998,
              12.617276401000026
            ],
            [
              104.55427061099999,
              12.617926582999985
            ],
            [
              104.55476987200001,
              12.618403295000007
            ],
            [
              104.55517562400001,
              12.618877589000022
            ],
            [
              104.55569882999998,
              12.619319297000004
            ],
            [
              104.55627498400003,
              12.620428000999993
            ],
            [
              104.556302904,
              12.62125772600001
            ],
            [
              104.55618469699999,
              12.622729248999974
            ],
            [
              104.555951155,
              12.624003899000002
            ],
            [
              104.55580669900002,
              12.625843872000019
            ],
            [
              104.55535433699998,
              12.628025830000013
            ],
            [
              104.55531739100002,
              12.629591306000009
            ],
            [
              104.55535492400003,
              12.630684418999977
            ],
            [
              104.555231295,
              12.632788928000025
            ],
            [
              104.55509301299998,
              12.633880616999988
            ],
            [
              104.55512482699999,
              12.635618019999981
            ],
            [
              104.55465268500001,
              12.637408839999978
            ],
            [
              104.55487901200001,
              12.638320281000006
            ],
            [
              104.55523994800001,
              12.639933894000023
            ],
            [
              104.55558296499999,
              12.642260727999997
            ],
            [
              104.55521506899998,
              12.644168147000016
            ],
            [
              104.55439737400002,
              12.645254179000005
            ],
            [
              104.55319813300002,
              12.645819607000021
            ],
            [
              104.55256060200003,
              12.646389365000005
            ],
            [
              104.55230730599999,
              12.647250266000015
            ],
            [
              104.55254183199997,
              12.648575430999983
            ],
            [
              104.55226779999998,
              12.649114146999977
            ],
            [
              104.55175522899998,
              12.650133991000018
            ],
            [
              104.55132859600002,
              12.650717664000013
            ],
            [
              104.55096317300001,
              12.652336839999975
            ],
            [
              104.55066724699998,
              12.654036385999973
            ],
            [
              104.55063453100001,
              12.654807229000028
            ],
            [
              104.54967028200002,
              12.655576499000006
            ],
            [
              104.54869164399997,
              12.656342348999999
            ],
            [
              104.54849568100002,
              12.65666190600001
            ],
            [
              104.54803939099997,
              12.656916591000027
            ],
            [
              104.54725688399998,
              12.657427310000003
            ],
            [
              104.54621353200002,
              12.658002011999997
            ],
            [
              104.54575695,
              12.658256692000009
            ],
            [
              104.54562551499998,
              12.659023973999979
            ],
            [
              104.54575446000001,
              12.659663970999986
            ],
            [
              104.54614510300001,
              12.659920096000008
            ],
            [
              104.546600495,
              12.66017746099999
            ],
            [
              104.54620889699999,
              12.660624412000004
            ],
            [
              104.54536172799999,
              12.66075069599998
            ],
            [
              104.544514505,
              12.66106913599998
            ],
            [
              104.54418794100002,
              12.66151619499999
            ],
            [
              104.54373192000003,
              12.661450983999998
            ],
            [
              104.54308055199999,
              12.661514296999997
            ],
            [
              104.54281902399998,
              12.66196146499999
            ],
            [
              104.54275353000003,
              12.662216811000008
            ],
            [
              104.541905213,
              12.66298285900001
            ],
            [
              104.54105889200002,
              12.662790373000007
            ],
            [
              104.54086291499999,
              12.663109922999979
            ],
            [
              104.54066682299998,
              12.663492771999984
            ],
            [
              104.54066613499998,
              12.663877088999982
            ],
            [
              104.53108791599999,
              12.665203238999993
            ],
            [
              104.52991483300002,
              12.665393328999983
            ],
            [
              104.529198479,
              12.665264334000028
            ],
            [
              104.52861037899999,
              12.666286254999989
            ],
            [
              104.52684858999999,
              12.667818136999983
            ],
            [
              104.52307025599998,
              12.667939121000018
            ],
            [
              104.52202823900001,
              12.667746222999995
            ],
            [
              104.52053443199998,
              12.665376595999987
            ],
            [
              104.517997089,
              12.66181143
            ],
            [
              104.51688598099997,
              12.661951839999972
            ],
            [
              104.515965091,
              12.661790789000008
            ],
            [
              104.51504460500001,
              12.661416099999997
            ],
            [
              104.51363683599999,
              12.660774887999992
            ],
            [
              104.512229176,
              12.660080542999992
            ],
            [
              104.512012578,
              12.660027019999973
            ],
            [
              104.510170921,
              12.659651756000017
            ],
            [
              104.50984593499999,
              12.659543774999975
            ],
            [
              104.506814351,
              12.658101511999973
            ],
            [
              104.50648977399999,
              12.657782154000017
            ],
            [
              104.50551605300001,
              12.656822948000013
            ],
            [
              104.50405587699998,
              12.655330441999979
            ],
            [
              104.50178459799997,
              12.65303726000002
            ],
            [
              104.50140603699998,
              12.652664669999979
            ],
            [
              104.49934786400001,
              12.652234670999974
            ],
            [
              104.49875191400002,
              12.652074172000027
            ],
            [
              104.49810236000002,
              12.651807319
            ],
            [
              104.497615215,
              12.651486513999998
            ],
            [
              104.496966079,
              12.651007155000002
            ],
            [
              104.495903376,
              12.65055074899999
            ],
            [
              104.49599039100002,
              12.64917528799998
            ],
            [
              104.49582523700002,
              12.647989246999998
            ],
            [
              104.495440202,
              12.646524725999996
            ],
            [
              104.49494663000002,
              12.645381015999988
            ],
            [
              104.49453429200003,
              12.64434258099999
            ],
            [
              104.494651777,
              12.642985263000014
            ],
            [
              104.49505084200001,
              12.641550484999982
            ],
            [
              104.49516574900002,
              12.639158898000005
            ],
            [
              104.49391033400002,
              12.638100779000013
            ],
            [
              104.49280865999998,
              12.636860962000014
            ],
            [
              104.492115571,
              12.635784688000001
            ],
            [
              104.49152742299998,
              12.634756085999982
            ],
            [
              104.49077595400001,
              12.633668393999983
            ],
            [
              104.49015609899999,
              12.632236196999997
            ],
            [
              104.48918224200003,
              12.631134512000017
            ],
            [
              104.48894179400003,
              12.630499928999996
            ],
            [
              104.48863365699998,
              12.62961088999998
            ],
            [
              104.48799453100003,
              12.629053537000004
            ],
            [
              104.48718033400002,
              12.628414459999988
            ],
            [
              104.48751205999997,
              12.62800252300002
            ],
            [
              104.48805557100002,
              12.627442916000007
            ],
            [
              104.48809916800002,
              12.626500293999982
            ],
            [
              104.48845166699999,
              12.626203690000011
            ],
            [
              104.48876011499999,
              12.625919435000014
            ],
            [
              104.48933348399999,
              12.625970267000014
            ],
            [
              104.49011553700001,
              12.626275824999993
            ],
            [
              104.49084886399999,
              12.626776835999976
            ],
            [
              104.49143107200001,
              12.627161132000026
            ],
            [
              104.49170340199998,
              12.626806723000016
            ],
            [
              104.49132213399997,
              12.626228391999973
            ],
            [
              104.49037863000001,
              12.625645596000027
            ],
            [
              104.48984401799999,
              12.625203741000007
            ],
            [
              104.48937970899999,
              12.624715675999994
            ],
            [
              104.48901067100002,
              12.624068414000021
            ],
            [
              104.48853409600002,
              12.623673010999994
            ],
            [
              104.488200522,
              12.622991905999982
            ],
            [
              104.48836898899998,
              12.622486965999997
            ],
            [
              104.489487269,
              12.621840288999977
            ],
            [
              104.49046550899999,
              12.621146996999983
            ],
            [
              104.491666183,
              12.620443951000027
            ],
            [
              104.49258415600002,
              12.619957388999978
            ],
            [
              104.49363561299998,
              12.61889573100001
            ],
            [
              104.49398176099999,
              12.618161663000024
            ],
            [
              104.493744247,
              12.617204942
            ],
            [
              104.49344205300002,
              12.616950041999985
            ],
            [
              104.492813609,
              12.616530622000028
            ],
            [
              104.492236252,
              12.615593601
            ],
            [
              104.49174635399999,
              12.615393729000004
            ],
            [
              104.491281678,
              12.614952010000025
            ],
            [
              104.490756369,
              12.614763372000027
            ],
            [
              104.49058497599998,
              12.614279259
            ],
            [
              104.490884558,
              12.613522498999998
            ],
            [
              104.489931464,
              12.612720398000022
            ],
            [
              104.48926058400002,
              12.613105694000012
            ],
            [
              104.48860673600001,
              12.612881765999987
            ],
            [
              104.48836857200001,
              12.612699324999994
            ],
            [
              104.488106566,
              12.612497621999978
            ],
            [
              104.48788901699999,
              12.611932033000016
            ],
            [
              104.4874886,
              12.610869873000013
            ],
            [
              104.48753936700001,
              12.609937436999985
            ],
            [
              104.48540892699998,
              12.60697636499998
            ],
            [
              104.48463361,
              12.606211889999997
            ],
            [
              104.484051454,
              12.605829841000002
            ],
            [
              104.48288887500001,
              12.604491528999972
            ],
            [
              104.48106274000003,
              12.595046233000005
            ],
            [
              104.47815502399999,
              12.592273497000008
            ],
            [
              104.47544718400002,
              12.58673630200002
            ],
            [
              104.47496319599998,
              12.586068451000017
            ],
            [
              104.474868475,
              12.584828277999975
            ],
            [
              104.475065965,
              12.583206621999977
            ],
            [
              104.475747523,
              12.582350025999972
            ],
            [
              104.47584795799997,
              12.58063322999999
            ],
            [
              104.47585659999999,
              12.576371848999997
            ],
            [
              104.47673833699997,
              12.576097769
            ],
            [
              104.47864923899999,
              12.575338510999984
            ],
            [
              104.48055044099999,
              12.574246899000002
            ],
            [
              104.48242920000001,
              12.573006023999994
            ],
            [
              104.48332122199997,
              12.572470830999976
            ],
            [
              104.48387574399999,
              12.57167048399998
            ],
            [
              104.48422197000002,
              12.570443593999983
            ],
            [
              104.48391559200002,
              12.56885712899998
            ],
            [
              104.48353022999999,
              12.566776548999997
            ],
            [
              104.48365338000002,
              12.56575495300001
            ],
            [
              104.48459490599998,
              12.564760928999988
            ]
          ]
        ]
      },
      "properties": {
        "objectid": 1184844,
        "site_id": 555703503,
        "site_pid": "555703503",
        "site_type": "PA",
        "name_eng": "Stung Sen Core Area (Ramsar Site)",
        "name": "តំបន់ប្រើប្រាស់ច្រើនយ៉ាង តំបន់ស្នូលស្ទឹងសែន",
        "desig": "តំបន់រ៉ាមសារ",
        "desig_eng": "Wetland of International Importance (Ramsar Site)",
        "desig_type": "International",
        "iucn_cat": "Ia",
        "int_crit": "Not Reported",
        "realm": "Terrestrial",
        "rep_m_area": 0,
        "gis_m_area": 0,
        "rep_area": 213.42,
        "gis_area": 63.60494502,
        "no_take": "Not Applicable",
        "no_tk_area": 0,
        "status": "Designated",
        "status_yr": 2018,
        "gov_type": "Federal or national ministry or agency",
        "verif": "State Verified",
        "inlnd_wtrs": "Not Reported",
        "own_type": "State",
        "mang_auth": "Ministry of Environment",
        "mang_plan": "Not Reported",
        "cons_obj": "Not Applicable",
        "supp_info": "Not Applicable",
        "metadataid": 1976,
        "prnt_iso3": "KHM",
        "iso3": "KHM",
        "govsubtype": "Not Applicable",
        "ownsubtype": "Not Applicable",
        "oecm_asmt": "Not Applicable",
        "st_area(shape)": 0.005291801170293934,
        "st_length(shape)": 0.3282475964196987
      }
    }
  ]
}